{"type":"FeatureCollection","features":[{"type":"Feature","id":2028,"geometry":{"type":"Polygon","coordinates":[[[-95.618932516450457,29.661875276752063],[-95.619183401914967,29.661889584192778],[-95.619188585746315,29.661852098807259],[-95.61920632992782,29.661694983419029],[-95.619218237927072,29.661560438086763],[-95.61922933820324,29.661435024141664],[-95.619230770832246,29.661083150081954],[-95.619227569018321,29.660875222725846],[-95.619203539818372,29.659686361251399],[-95.619176904877591,29.658591955532714],[-95.619157674611628,29.657819271654574],[-95.619143712235243,29.65748659379388],[-95.61913701765846,29.657016989435505],[-95.61917528148085,29.657016469197799],[-95.619175483499859,29.656964355339934],[-95.619177560787591,29.65643006679467],[-95.619178426179943,29.656017103063597],[-95.619172033601046,29.6556859304726],[-95.619183893413989,29.654697292587905],[-95.625537294693146,29.654582897031482],[-95.625520540000906,29.654236282543227],[-95.625494902320654,29.652891022896387],[-95.625491793400286,29.652727880256421],[-95.625480099661274,29.652114312156112],[-95.625466454059122,29.651398383068951],[-95.630561863060052,29.651331742599471],[-95.631430880633616,29.651319906246126],[-95.631450185172511,29.652146688406564],[-95.631468112439848,29.653022753715593],[-95.63147053250961,29.653484273280011],[-95.631477399836882,29.654159884311756],[-95.631522823730066,29.656904879590861],[-95.635143841515372,29.656917095423076],[-95.637758110511186,29.65688593736607],[-95.639336372123665,29.656866786774],[-95.639443601318916,29.656865904354536],[-95.639434681761855,29.656123111851585],[-95.639422725752254,29.655127406561775],[-95.63938758177882,29.653563446030255],[-95.639304619137377,29.649717520555573],[-95.639276315879385,29.648508610658372],[-95.63922415957839,29.646547537269154],[-95.639166063443042,29.644444255716536],[-95.639334734052042,29.64444263552744],[-95.641581812691797,29.644416119143617],[-95.644990159275139,29.644397485941965],[-95.646181254479899,29.644381275762655],[-95.647453559251403,29.644394538127955],[-95.648947443244637,29.644384925021889],[-95.65105270354529,29.64437134893085],[-95.651189655997555,29.644370235321546],[-95.651829892952833,29.644374221351594],[-95.651829998352213,29.644374221280348],[-95.651831647569026,29.644374282393589],[-95.651829928079565,29.644372330319836],[-95.651858886371144,29.644372931053312],[-95.651858229430246,29.644255510562008],[-95.651857542790196,29.644205472390574],[-95.651851163446068,29.643740414581416],[-95.651843688174608,29.643280862420148],[-95.651839196251004,29.643004689001121],[-95.651836790705474,29.64285679799378],[-95.651837197274546,29.642754815556589],[-95.651830183056688,29.642396345848645],[-95.651828934277901,29.642301078172025],[-95.651827271415684,29.642034175958663],[-95.651824413857739,29.641826160281465],[-95.651820434083305,29.641536479082816],[-95.65181660305285,29.641257548293609],[-95.651813085463147,29.641001427559729],[-95.651808478567034,29.640666073789017],[-95.651783081432214,29.638817114716577],[-95.654081126568826,29.638792836506372],[-95.654394899751125,29.638788080580618],[-95.655375085693578,29.638779173675665],[-95.655383858727447,29.639412335619749],[-95.655396244113547,29.640306258015599],[-95.655401191669228,29.640662458908611],[-95.655401612889406,29.640693897173588],[-95.656977244466347,29.640802045892102],[-95.658738819773916,29.640922943542773],[-95.659063024070676,29.640945179995125],[-95.659190576160313,29.640954109113501],[-95.660057447954244,29.641013403742345],[-95.661172517859782,29.641089893903271],[-95.661410852468336,29.641106242007734],[-95.661745123721346,29.641129177070066],[-95.661810953642572,29.640743187358002],[-95.661674031547705,29.6403321870926],[-95.661831691780094,29.640284730151183],[-95.662598348938388,29.640009693076124],[-95.662603436339964,29.640380374735244],[-95.662819453597336,29.639986513582837],[-95.663266155764276,29.63929650521813],[-95.663294614066061,29.639252525613443],[-95.663352408721039,29.639162736084561],[-95.663734053051456,29.63856983187188],[-95.66379328484399,29.638467842862973],[-95.664090326531493,29.637731098099824],[-95.664372769503117,29.637039915415777],[-95.664527273989677,29.636638660360404],[-95.666259023140327,29.636181894147107],[-95.666636175572904,29.636113696568803],[-95.66768439407744,29.63584100683979],[-95.668102921317995,29.635721527197806],[-95.669325121497707,29.635350340533424],[-95.670216313696514,29.635047177983587],[-95.670519916714426,29.63492071375838],[-95.673127982151271,29.633859360558841],[-95.673317470091732,29.633781719687079],[-95.673305933535929,29.633760494690048],[-95.673710327238041,29.633567799128709],[-95.674350280220935,29.633306454240127],[-95.674349024045171,29.631899607155699],[-95.674378852808672,29.629373943921159],[-95.674369908530565,29.625305433721142],[-95.674277519761461,29.622082551590687],[-95.67421749778461,29.620058453786552],[-95.674265021697479,29.620020743338991],[-95.674143445439057,29.616506857305303],[-95.674119598506493,29.614917865325598],[-95.674038859312716,29.612272599768357],[-95.67400494475919,29.610786981561965],[-95.674003523062879,29.610725086181702],[-95.673999819060001,29.610561891311693],[-95.67390021992162,29.606173028499963],[-95.673884162437247,29.605465396891663],[-95.673881298043227,29.605183011087796],[-95.673877814114007,29.604839477258128],[-95.673868427474048,29.603717238803021],[-95.672616244686637,29.604174837310108],[-95.671409751028662,29.604616672757146],[-95.670332568701227,29.605007647086481],[-95.669181082539055,29.605429211000544],[-95.668048886365568,29.605837887515499],[-95.666942385557249,29.60624841241032],[-95.665015778810783,29.606953834970216],[-95.664183643858863,29.607255557647811],[-95.662990637405116,29.607689608870711],[-95.660586798211369,29.60858828305042],[-95.660559067671855,29.608082741813064],[-95.662082028652748,29.607534797618349],[-95.662272546462418,29.607466209598854],[-95.663007696424714,29.607167397195877],[-95.663813774087046,29.606873097961838],[-95.665123118956373,29.606395383390094],[-95.668924990841319,29.605004074637371],[-95.673859781213622,29.60320414687736],[-95.674183587880719,29.603093018318425],[-95.674802626466033,29.602900722880666],[-95.675720604022743,29.602657571496472],[-95.677013751273023,29.60239204845583],[-95.677826400119585,29.602270744227141],[-95.678454701429899,29.602196963852514],[-95.679893005743097,29.602042592655053],[-95.689208979074976,29.601015922670481],[-95.693710853977379,29.600539055103617],[-95.697899275885931,29.600100050597135],[-95.697856083418984,29.598549655900047],[-95.697807442033437,29.59624403616894],[-95.697709296991874,29.592667609914745],[-95.697615473786584,29.588913811009295],[-95.69748166094044,29.584019728618088],[-95.697453044225909,29.583343289269926],[-95.697333882778523,29.579013460222434],[-95.697323729505882,29.578326098220849],[-95.697267633292469,29.576595590066784],[-95.697224134586634,29.575783459153801],[-95.697181485256777,29.574231773294677],[-95.697138286831716,29.572660085360255],[-95.697581858968036,29.57134701372534],[-95.697623632375411,29.571037621052927],[-95.697704838075126,29.569664477645169],[-95.697784291343524,29.568278202348004],[-95.697836959532253,29.567359260886068],[-95.697898628096056,29.566148651755313],[-95.697887523193273,29.56482266777472],[-95.697879309286634,29.564130746338293],[-95.697887693760805,29.564055457802777],[-95.697636629630324,29.564044108167604],[-95.69542935691301,29.563960092937954],[-95.692665061582716,29.563537350441731],[-95.691318323109485,29.563336080645449],[-95.691332446390888,29.563264311134695],[-95.691197455451103,29.563243484599177],[-95.691303023945736,29.563137331327681],[-95.691419920229066,29.563003371753101],[-95.691472688760967,29.562926531370014],[-95.691510307224164,29.562859947437509],[-95.691537325201693,29.562809251243166],[-95.691651284190868,29.562585278209522],[-95.691677991108222,29.562536691879775],[-95.691738337772222,29.562432185272741],[-95.691855848720152,29.562260495847461],[-95.691997130371448,29.562088114359756],[-95.69214113427492,29.561939242458696],[-95.692178869282174,29.561897714831737],[-95.69312121199259,29.561701395108269],[-95.693763091608432,29.561591357354548],[-95.694570869660993,29.561427592298898],[-95.695020162289239,29.561337507138482],[-95.695697638288863,29.56120952080968],[-95.695330839902525,29.559840699785802],[-95.693812015621148,29.560151793422065],[-95.69264489323551,29.560020057262054],[-95.691859477442264,29.55966780388421],[-95.691615887215519,29.559285514212434],[-95.691300234125777,29.559133166397014],[-95.691069325833283,29.559245227673053],[-95.691026590413486,29.55926573158597],[-95.690915006257512,29.559319078578451],[-95.690691770063381,29.559345867264433],[-95.690631532433784,29.559340738993793],[-95.690576572296294,29.55933839505261],[-95.690538044726907,29.559338049998864],[-95.690470032916693,29.559338979136044],[-95.690441110011292,29.559339274321097],[-95.690415765684605,29.559340298032641],[-95.690385130164373,29.559341926443018],[-95.690346784842362,29.559345901358483],[-95.690306712903919,29.559351705603685],[-95.689911737771254,29.559190230701937],[-95.689950208967332,29.559118568361431],[-95.689400864465284,29.558882134008595],[-95.688996305970804,29.559599193807308],[-95.689529890681939,29.559829299326712],[-95.689272763612479,29.560296675750514],[-95.689156046074615,29.560484189678434],[-95.688994800236728,29.560759211284505],[-95.688971673468714,29.560791719502372],[-95.688920111547404,29.560864210129374],[-95.688826049368686,29.560959755230488],[-95.688783221083298,29.561003264401155],[-95.688636430610828,29.561133186029778],[-95.688357666686827,29.561275679947112],[-95.688259984192626,29.561318663740408],[-95.688165684680428,29.561360158844465],[-95.68811407110698,29.561382880922757],[-95.688031956680618,29.561407960827623],[-95.68785404233472,29.561462299253986],[-95.687803443483375,29.561473616234558],[-95.686658456485503,29.561729062211448],[-95.686743961106671,29.561545865251837],[-95.687443456114167,29.560171852378936],[-95.687613318290474,29.55983819388814],[-95.688008304167624,29.559077744902041],[-95.688292805178648,29.558434859793255],[-95.688414965074088,29.558194184099342],[-95.690079786433884,29.558877203808354],[-95.690569202006529,29.559078040697678],[-95.69058805969766,29.559050988626254],[-95.690608900260216,29.558998023033546],[-95.690700226491401,29.558811480839417],[-95.691332240041476,29.558277612682758],[-95.691701780022655,29.558140305584853],[-95.691729163333363,29.55808976369514],[-95.691127497531497,29.557850966046956],[-95.691140247373852,29.557837937808916],[-95.691513539804959,29.557688576388628],[-95.691968183518071,29.557733726596766],[-95.691993678867874,29.557692323200335],[-95.691204801863122,29.557396681633218],[-95.691006915570725,29.557803107776817],[-95.689587233090705,29.557239627607657],[-95.689332907388106,29.557742712482366],[-95.689018643363696,29.557616128558426],[-95.688914374978282,29.55782239326448],[-95.688657250301162,29.557718824268871],[-95.689018097870502,29.557014219980555],[-95.689558141043278,29.556022126496387],[-95.689687988535923,29.555739939838567],[-95.689830764398934,29.555462491492669],[-95.689957223809401,29.55521682273196],[-95.690212299161018,29.554737007167795],[-95.691045387284859,29.555142541690358],[-95.691960848548689,29.55560368194573],[-95.692940415022804,29.556109037132057],[-95.693098566250086,29.555888363508107],[-95.69346282058082,29.555313243392206],[-95.693861520492405,29.554636263587085],[-95.694143731555428,29.554121492815732],[-95.694517738309116,29.55342410669239],[-95.694905525150489,29.552697566412256],[-95.695073292253255,29.552346998378788],[-95.695299694610526,29.55175731785447],[-95.69543328768134,29.551432369282239],[-95.695641641460753,29.550976672146874],[-95.695932129217283,29.55033132605897],[-95.696137110109575,29.549888785624443],[-95.696499711600609,29.549182700549856],[-95.696549398819343,29.549076345216225],[-95.696789161863052,29.54852153169789],[-95.696884214525284,29.548349914099873],[-95.697114037750012,29.547913109217479],[-95.697362799719897,29.547420419949106],[-95.697794465815036,29.546527403671611],[-95.698095021887895,29.545914662986114],[-95.697628238846619,29.54572792244058],[-95.697214365174702,29.545562924671838],[-95.696867524590203,29.545425408746347],[-95.696444897583518,29.54525740223162],[-95.696180150995332,29.545149238286843],[-95.696013032682089,29.545087358993054],[-95.69562521970208,29.544942141484334],[-95.695286944482021,29.544807963363514],[-95.694936449841919,29.54466535766235],[-95.69442373401921,29.544464027217607],[-95.694080208894022,29.544326774461826],[-95.693738612909229,29.544191981256379],[-95.693029096992703,29.543911331853046],[-95.692473715811161,29.544986684378443],[-95.692232290376396,29.545452975702457],[-95.691925974765269,29.546046198172597],[-95.691314652568934,29.547237508881317],[-95.690906811166599,29.547076047376294],[-95.690478894917987,29.546906637334114],[-95.690133688675743,29.546769970241957],[-95.689777889358979,29.5466291080891],[-95.689338740768804,29.546455246022663],[-95.689218595747761,29.546327999268197],[-95.689169495355486,29.546360891636301],[-95.689141847454422,29.546335221954131],[-95.689081528983024,29.546285557168758],[-95.689063003611665,29.54627311499571],[-95.689024839461155,29.546247739114264],[-95.688980013811545,29.546221345274876],[-95.688939616089797,29.546200327073688],[-95.688902015870667,29.546182880380766],[-95.688866817601721,29.546168309396364],[-95.68863396614141,29.546075791217028],[-95.688461881290294,29.546007722707586],[-95.688377481371802,29.545973751161018],[-95.688361607236089,29.545965861578434],[-95.688346121884663,29.545957060025884],[-95.688334075325713,29.545949304049476],[-95.688321408326203,29.545940083063446],[-95.68830843572475,29.54592920628405],[-95.68829676289711,29.545918039451841],[-95.688284616470042,29.545904634974988],[-95.688275215332212,29.545892684044595],[-95.688266364587221,29.545879899164838],[-95.68825752239546,29.545864619595207],[-95.688251351850141,29.545852174595854],[-95.68824569973772,29.545838639408473],[-95.68824096277595,29.545824386720778],[-95.688236629734462,29.545807193301801],[-95.688234229125612,29.545793028266402],[-95.688232566574669,29.545773733746234],[-95.688232635894707,29.545756998684602],[-95.68823407074882,29.545739823556985],[-95.688236865083482,29.545723319365109],[-95.688240752882749,29.545707954309837],[-95.688245390281821,29.545693922968741],[-95.688251270862978,29.545679595661571],[-95.688256724964475,29.545668363780802],[-95.688276161046645,29.545646471384625],[-95.687975902905009,29.545527168315999],[-95.688354473978976,29.544795372246824],[-95.686567898564562,29.544093049379125],[-95.686484387952746,29.544024603232039],[-95.686282388023884,29.543941859959634],[-95.686010874642875,29.543832781178867],[-95.685897161431697,29.543788018807554],[-95.685836131643711,29.543763988824661],[-95.685659878951995,29.543698021093324],[-95.685489703154204,29.543633082934523],[-95.685316890986925,29.54356436031043],[-95.685021449543115,29.543447762114013],[-95.685006242878998,29.543477885402822],[-95.684832766839733,29.543412940387363],[-95.6848531799764,29.543357137843042],[-95.685838899225402,29.541404368158286],[-95.68492786741902,29.541040658696147],[-95.684594632755633,29.541692677909694],[-95.683630894622638,29.541310349911424],[-95.683930215835389,29.54057363536576],[-95.683761187391696,29.540504321974048],[-95.683825658462538,29.540374571015271],[-95.681888527888759,29.539633032898557],[-95.680342943597481,29.542577397703159],[-95.679199287522877,29.542621046128374],[-95.678800258179962,29.542756715543955],[-95.678248456814543,29.542840591370656],[-95.678194171101964,29.542965755554977],[-95.67726331106455,29.542899135452288],[-95.676877076034771,29.54278550164133],[-95.676430889599445,29.54362956997646],[-95.675458924590188,29.545468220633563],[-95.674676351634957,29.545265592867445],[-95.675997015636227,29.542764937958648],[-95.676044764156956,29.542674520066498],[-95.676087392526739,29.542598358519292],[-95.67619987019178,29.542374143026287],[-95.676240396405063,29.54231281649567],[-95.675674345746685,29.542017471167821],[-95.674308451173118,29.541264285080373],[-95.673026419359672,29.54092415573129],[-95.672289627291548,29.540752589110948],[-95.672011805150078,29.540673079066391],[-95.675170555631652,29.534173153585805],[-95.67485203750303,29.534129901766565],[-95.674551610339719,29.53474417086862],[-95.673930240510245,29.534659391966184],[-95.673541420771713,29.535456738090126],[-95.674162795093935,29.53554151968671],[-95.673484491219824,29.536932492843391],[-95.670723458995312,29.535966925664948],[-95.66806880657542,29.541147234793311],[-95.666981649425836,29.541158388592201],[-95.666703208248649,29.541273446487494],[-95.666041056906295,29.541381567907266],[-95.665890290429388,29.541407895551355],[-95.665152764416973,29.541385099624602],[-95.664744634188239,29.54138305165753],[-95.664614654566208,29.541379807532493],[-95.664366005119263,29.54138539504396],[-95.664011608422527,29.541612697730766],[-95.663552439901423,29.541975555241841],[-95.663267878391892,29.542291832283155],[-95.662916420499172,29.542473106381788],[-95.662445408709701,29.542591639237457],[-95.662374685402298,29.542588768133164],[-95.662249308525631,29.542583679698694],[-95.662206147563893,29.542581927096215],[-95.66188291585803,29.542538364840642],[-95.661763390670615,29.542522759058588],[-95.6616331610917,29.542505754891035],[-95.661462583319746,29.542523991700801],[-95.661323792888922,29.542604070810309],[-95.661163353710847,29.542763983682402],[-95.660965733959458,29.542960956736682],[-95.660622458539791,29.543098902682413],[-95.660236559387911,29.543125550840518],[-95.660117096526989,29.543363026035184],[-95.654052354122129,29.55541730950133],[-95.653405574222873,29.550857583616498],[-95.651217536458418,29.54756874389129],[-95.64802831932667,29.544861405138985],[-95.643336622130619,29.543351751979301],[-95.641078626647129,29.542595946468062],[-95.63874551990159,29.541337337749852],[-95.635588000959189,29.546185621142168],[-95.634915384581774,29.547261580013206],[-95.634311776629616,29.548231975145548],[-95.634052487243508,29.548106191783457],[-95.633755915655968,29.547989094330468],[-95.633602923946867,29.547918076323885],[-95.633462234916621,29.5478592170066],[-95.633247193301656,29.547779135298814],[-95.633043589678906,29.547714774810157],[-95.632878106409734,29.547670059753486],[-95.632769072917569,29.547644880468511],[-95.632454697886374,29.547582987524997],[-95.632044209219487,29.547443880034237],[-95.631521693875754,29.547265435937341],[-95.631165049051091,29.547101223483285],[-95.630918716279325,29.546999135402203],[-95.630631974906947,29.546891339346459],[-95.630384643251944,29.546807842320643],[-95.630168449655002,29.546824478380799],[-95.627822287915791,29.545257535948576],[-95.627929609185202,29.545030461773962],[-95.627811166015363,29.544875151685432],[-95.62770185267037,29.544741254344618],[-95.627513309522669,29.544535815323488],[-95.627341727883078,29.544366672647683],[-95.627234252900081,29.544154243305666],[-95.627120996769577,29.543946435851133],[-95.626852940210284,29.54352115489387],[-95.626828318861627,29.54348758864052],[-95.626827254083764,29.543486038998982],[-95.626825630789213,29.543483677320022],[-95.626825395138269,29.54348334190583],[-95.62682372198806,29.543480958207976],[-95.626821830860052,29.543478266621459],[-95.626820519551757,29.543476398441722],[-95.626818611722783,29.543473681159458],[-95.626817457181289,29.543472036279812],[-95.62681596733745,29.543469916268375],[-95.626812979983541,29.543465689591866],[-95.626810343443552,29.543461905942785],[-95.62680802346172,29.543458602368506],[-95.626805866167473,29.543455530367599],[-95.626803980990957,29.543452846152164],[-95.626802324602323,29.543450486345911],[-95.626800262923467,29.543447551252729],[-95.62679811255218,29.543444488452856],[-95.626794669548332,29.543439585926425],[-95.62679029089422,29.543433350042289],[-95.626787397749297,29.543429240379062],[-95.626784306808702,29.543424930752174],[-95.62678124152508,29.543420656976092],[-95.626777212098148,29.543415037388844],[-95.626773377055457,29.543409689891465],[-95.62677034137657,29.543405457481434],[-95.626766560563695,29.543400187174978],[-95.626762611083691,29.543394678825535],[-95.626759408592761,29.543390214737656],[-95.626754896521589,29.543383924034941],[-95.626751150292748,29.543378700635916],[-95.626743579199854,29.543369854969885],[-95.626576540791604,29.543147746046767],[-95.626408978162743,29.542942796683953],[-95.626104996679402,29.542612009264761],[-95.62596392610989,29.542425455914049],[-95.625822199931903,29.542181244948534],[-95.625755038070039,29.542064167171244],[-95.625657791388534,29.5418295625289],[-95.625642853840404,29.541798959212269],[-95.625586919019099,29.541693215883104],[-95.625534680817282,29.541604425630752],[-95.625438627206933,29.541460770937331],[-95.625386398512305,29.541391246247777],[-95.625309267999995,29.541296247415932],[-95.625286246683402,29.541269748399387],[-95.625173881444184,29.541149528161657],[-95.625167310545706,29.541142945324985],[-95.62501057136565,29.540997744992001],[-95.624805365415725,29.540839639727785],[-95.624724214948628,29.540718664397971],[-95.624705195263459,29.540694251229734],[-95.624560102643841,29.540540694170559],[-95.624409003267246,29.540422730490832],[-95.624290983815385,29.540351324982833],[-95.624238954065902,29.54032430460158],[-95.623963076435089,29.540002568180707],[-95.62380394561697,29.539844933204947],[-95.623721366316815,29.53978835276034],[-95.623650979625666,29.539736131277675],[-95.623344990890132,29.539470954504825],[-95.623236210391894,29.539352744773915],[-95.622634136062089,29.53887763748439],[-95.622064859299357,29.53836569974856],[-95.621590272025443,29.538083367246177],[-95.621433052596714,29.537991007173858],[-95.621287006479932,29.537903204249837],[-95.620904531459075,29.537630903761812],[-95.618333365777715,29.53539667182045],[-95.617796421772695,29.534646185002217],[-95.617144669265684,29.534100632678459],[-95.616877352691134,29.533112545897477],[-95.616804120250279,29.532713899782671],[-95.616657731024432,29.531839820822505],[-95.616680222475566,29.531160136371582],[-95.61649184057417,29.530324030601037],[-95.61639827508499,29.529887080369697],[-95.616537032102997,29.529183663649256],[-95.616631920926679,29.52870262898201],[-95.616703113372097,29.528436850480507],[-95.616510532169585,29.528198201993103],[-95.616350519035123,29.527984719544641],[-95.616302029792848,29.527714097672838],[-95.61623587669456,29.527344892283491],[-95.616212055637888,29.527256455024041],[-95.616061250273418,29.52685827431872],[-95.615942589946187,29.526452905893208],[-95.6155727345934,29.526299064961847],[-95.6154192959971,29.526233534052537],[-95.615273520721274,29.52617150614093],[-95.615009400133019,29.526058459980511],[-95.615009712240607,29.525977727524758],[-95.613584094090626,29.525406360453442],[-95.61249314151857,29.52526253647498],[-95.611148567227488,29.525259259606198],[-95.610312817657118,29.525440821824294],[-95.6095588650049,29.52573115263672],[-95.609246472790034,29.525890216804644],[-95.608104744369442,29.526540270991084],[-95.606125232219028,29.528247226785293],[-95.605384648142902,29.529078688430424],[-95.604539883729473,29.52979413657744],[-95.603405821215958,29.530471983515298],[-95.603400105120826,29.53047540020038],[-95.60372374195579,29.529307210061084],[-95.604377378874062,29.526923968111468],[-95.609260072253178,29.52560373160863],[-95.613490365143562,29.524423747579466],[-95.615142332104227,29.523966909792371],[-95.615134251050634,29.519606945983011],[-95.615008594818448,29.513664438890959],[-95.613273527111332,29.51284872790708],[-95.612658429572505,29.512541277112646],[-95.612658763046142,29.513015008375287],[-95.612654306360312,29.513548549697497],[-95.61266783639195,29.514103586963923],[-95.612664848530073,29.514549476084362],[-95.612670789399232,29.515013410013054],[-95.612673878650682,29.515351820301309],[-95.612732832806415,29.517628119813047],[-95.612738678195058,29.518032075346131],[-95.61274458266702,29.518440043777311],[-95.612749917850991,29.518808712035359],[-95.612756082553872,29.519234718592973],[-95.612761363149147,29.519599553599669],[-95.61276721664801,29.520004049862184],[-95.612773664622608,29.520449581769725],[-95.612779324815946,29.520840661294493],[-95.612785427519455,29.521262315259726],[-95.612797720998728,29.522111755288936],[-95.612810606668333,29.523050039378656],[-95.612389380976197,29.52316357674481],[-95.611976130316435,29.523274964389401],[-95.611582857955938,29.523380963678072],[-95.610409751823056,29.523697148944482],[-95.609260135306187,29.524017491711803],[-95.602934531255357,29.525738845595612],[-95.601565785319124,29.5308438834459],[-95.601514675241447,29.530843576255489],[-95.601276113055093,29.531938965229525],[-95.600255669659987,29.536193815452052],[-95.600134104478528,29.536655594649467],[-95.599276091985118,29.540202942062745],[-95.598710108611769,29.54241983328248],[-95.598253395884981,29.543251591501004],[-95.595562113175234,29.548555804483609],[-95.594939166113207,29.549759061055436],[-95.594562222722388,29.550501906831212],[-95.594513098913495,29.551416726971606],[-95.592572000179132,29.551462958555643],[-95.590527611050931,29.551510613892926],[-95.588708777826398,29.551554470133453],[-95.588735834360449,29.552464326400038],[-95.588768458474661,29.553533780654],[-95.588790322654305,29.554250592555267],[-95.588825080034169,29.555390055244295],[-95.588835932940967,29.555745848082399],[-95.588851439964373,29.556254174006128],[-95.588867463119527,29.556779430713167],[-95.588892593842033,29.557605595229298],[-95.588905293793715,29.558100257955807],[-95.588924081982668,29.558635552141968],[-95.588995841252625,29.560987760391317],[-95.589040293727237,29.562444870038178],[-95.589055403026165,29.562940112673321],[-95.589070494414045,29.563434782505794],[-95.589082421899235,29.563825751639524],[-95.589095801543294,29.564273981894836],[-95.589202700179371,29.567107010816432],[-95.589013983928155,29.567110137628823],[-95.589020526762596,29.567369800088024],[-95.585487480113869,29.565991073401477],[-95.584782143524436,29.565945722794257],[-95.581722091462694,29.568528917880677],[-95.581822776921825,29.572580301526141],[-95.581905102158586,29.574166137189003],[-95.581933978971193,29.575317268493787],[-95.581935454517151,29.575371180516676],[-95.583130029505227,29.576184131277284],[-95.584637444424473,29.577234262371675],[-95.584603069965226,29.577498269688387],[-95.584548820017318,29.577748957132531],[-95.584450135084111,29.578095516734152],[-95.584327407030003,29.578430247650289],[-95.584208357065179,29.578698966215825],[-95.584044964479403,29.578996836409736],[-95.583909794937028,29.579222962732931],[-95.583700277109301,29.579529590949832],[-95.583502438587431,29.579782221387472],[-95.582991797093896,29.580337148764816],[-95.582893561942541,29.580330783944941],[-95.582760998444499,29.580613402683081],[-95.582615028957918,29.580769868119098],[-95.581365116338532,29.582221978725798],[-95.580775310313641,29.58340692116489],[-95.580686375434752,29.583826228720316],[-95.580585897808987,29.584252122086848],[-95.580515151218805,29.584702246298068],[-95.580504175392505,29.585197633972509],[-95.580523299199939,29.585779043427465],[-95.580636713781971,29.586597222731378],[-95.580732774208457,29.587012969734548],[-95.580841593481807,29.587381382439897],[-95.581044740325297,29.587931590948944],[-95.581318500386629,29.588562020172997],[-95.581491300317296,29.58908996713712],[-95.581647107718837,29.589738940989804],[-95.581726536686944,29.590093386665405],[-95.581739027730791,29.590251072236509],[-95.581757010659388,29.590433625497468],[-95.581803379878522,29.590904355837406],[-95.581819413330606,29.591500165577322],[-95.5818387174008,29.592710002842175],[-95.581869002592327,29.594653662339187],[-95.581930380326867,29.598944610353609],[-95.581939391532416,29.599350491650444],[-95.581988591595803,29.602962685747663],[-95.582030326955064,29.605981795635557],[-95.58205457168016,29.606117879738836],[-95.582135901016514,29.606386882675015],[-95.582196489729824,29.606532638262095],[-95.582230103199166,29.607918453070322],[-95.582261375747791,29.609136567038394],[-95.58224354836041,29.60918641916459],[-95.582281701490459,29.610475172226767],[-95.582321123031321,29.614538254329094],[-95.582347290609107,29.616412457556613],[-95.582378272995541,29.618544667353426],[-95.582414867639628,29.621506864879777],[-95.582460530646088,29.623961272906453],[-95.58410352083574,29.623945425599878],[-95.585214962720954,29.623935153650059],[-95.586585446173757,29.623921447464081],[-95.586572573584533,29.621759923620203],[-95.586678733305476,29.621885664379892],[-95.586944180427068,29.622200072146459],[-95.58743195771288,29.622731691322439],[-95.587559451143917,29.622867447743225],[-95.587775811482771,29.623090919290473],[-95.587870974866121,29.623243899423603],[-95.588244109725778,29.623680443391674],[-95.588477266989742,29.623950302941342],[-95.58928823803295,29.623944410454587],[-95.590485226852778,29.623953735048612],[-95.590437842473108,29.628411543821592],[-95.59053299557489,29.628622578676719],[-95.590630354813555,29.628838506026256],[-95.590790939685505,29.629091745450658],[-95.59106442852908,29.632383876562209],[-95.591746112757036,29.632376676242252],[-95.593335528700763,29.632350071354807],[-95.594525180291853,29.632327041787391],[-95.594680043308628,29.63232542395555],[-95.595742202262642,29.63230634251687],[-95.596007763224335,29.632302668320019],[-95.596384169067946,29.632297459279634],[-95.596473041458793,29.632296158587948],[-95.597030853423391,29.632287950048276],[-95.597543100205712,29.632278502211303],[-95.597593439958516,29.632277529044938],[-95.597714089639538,29.632272370559928],[-95.597723483756226,29.63273367617758],[-95.59773623806349,29.633359937714292],[-95.597736756268176,29.634576056139249],[-95.597734811751721,29.63563600942167],[-95.597738140783477,29.6374990802166],[-95.597740858140682,29.639019423022368],[-95.597744079278513,29.640822334774761],[-95.597744956170075,29.643491665906925],[-95.597723291381229,29.646080238023064],[-95.597724639604508,29.647080296091936],[-95.597722673576811,29.649227968498227],[-95.597734018004729,29.650650091555701],[-95.597741193387563,29.651549655915009],[-95.597740842457625,29.652044117397299],[-95.597740654187575,29.652308684332787],[-95.597740234948191,29.652696412312597],[-95.597742917008475,29.653256914710038],[-95.597745523844253,29.653832548762225],[-95.597747095061777,29.654180042412335],[-95.597751599858952,29.655173952301087],[-95.597758789084665,29.65676127410611],[-95.597761919388248,29.657452288046784],[-95.597771622687333,29.659594625362885],[-95.597773720174928,29.660482565359171],[-95.598017624381541,29.660491573912328],[-95.600563365908286,29.660685868624896],[-95.600537876815338,29.658070598436169],[-95.605447202299118,29.657088438827113],[-95.60554508427515,29.660998931659922],[-95.60586825158056,29.661022254879814],[-95.606201901584726,29.661043278686652],[-95.606600124541046,29.661066302298774],[-95.606886744023072,29.661085458838791],[-95.607141756459427,29.661102502157135],[-95.607374178603948,29.661118034640293],[-95.607565645174589,29.661130165737159],[-95.607752174128819,29.661142846609025],[-95.60788569188496,29.661152218921178],[-95.608071169050064,29.661164612736012],[-95.608321744644044,29.661181357238348],[-95.608513245101506,29.661194153977473],[-95.608865108147754,29.661217665273831],[-95.608965387303002,29.661215049665337],[-95.60923875745398,29.661242631913456],[-95.60959432711131,29.661255645460763],[-95.609778647632666,29.661266684343925],[-95.609778509804883,29.661258041737426],[-95.610188965974473,29.661286432734961],[-95.610202245810811,29.661287349402453],[-95.611357502964609,29.661368546312715],[-95.611359468471932,29.661368302710272],[-95.611433789700627,29.661372815190926],[-95.611431825368044,29.661383487860107],[-95.611434842628469,29.661381292305148],[-95.611653982170779,29.6613959286931],[-95.61213841764507,29.661425771860518],[-95.612497065697312,29.661447448655885],[-95.61287549399897,29.661470302846823],[-95.614372178579941,29.661564342645551],[-95.615650971937896,29.661642665627873],[-95.615933885255401,29.661661156608218],[-95.616869912662892,29.661723038183638],[-95.617294350260067,29.661757875977631],[-95.618249149952447,29.66182984879789],[-95.618767668150227,29.661869298841161],[-95.618859733835905,29.661871129552438],[-95.618932516450457,29.661875276752063]],[[-95.608478815792537,29.652896507402446],[-95.607530956177129,29.653065577443996],[-95.606275804402514,29.653314924203428],[-95.606277931533313,29.652969580386316],[-95.606278330814405,29.652620566838586],[-95.606272917756641,29.652270635946739],[-95.606227093863282,29.649866374547322],[-95.608434979899755,29.649451815992911],[-95.608478815792537,29.652896507402446]],[[-95.689890897460444,29.589503359566635],[-95.68989129583484,29.589524250921773],[-95.68989257719457,29.589591372584898],[-95.689893618395672,29.589645949838307],[-95.689894061421313,29.589669161160135],[-95.689894929675859,29.589695026813889],[-95.689896954215655,29.589755401634239],[-95.689899193846884,29.589822144431228],[-95.68990129171344,29.589884687381609],[-95.689903160936936,29.589940388136377],[-95.689905639839992,29.590014282990548],[-95.689908478338694,29.590098916330884],[-95.689911262780456,29.590181902833265],[-95.689915121949142,29.590296943123434],[-95.68991620552876,29.590329233621393],[-95.689922147543754,29.590623463630841],[-95.689927575160283,29.590892158968888],[-95.689929384352354,29.590981756572049],[-95.689938774886997,29.591446687363714],[-95.68994989600526,29.591997333324905],[-95.689955316216086,29.592265719690502],[-95.68995828965781,29.592412922244545],[-95.689962586963944,29.592625713887568],[-95.689973859759533,29.593183832721333],[-95.689983428647039,29.593657585485666],[-95.689990771562975,29.59402112868867],[-95.689995743614219,29.594267296394388],[-95.689999555167987,29.594455999134887],[-95.69001047295734,29.594996553662988],[-95.690017731813242,29.595355906459606],[-95.690024936954572,29.595712646584236],[-95.690032681437174,29.596096036662889],[-95.690033834726464,29.596153152094061],[-95.69003418500688,29.59616931243934],[-95.688062401190976,29.596199941775581],[-95.687699379544824,29.596204271641806],[-95.682687877395509,29.596286456856465],[-95.682676609090279,29.595683380417178],[-95.682807038472674,29.595682023780476],[-95.682835176445494,29.595683129468512],[-95.683334480834716,29.595675258477268],[-95.683337121911052,29.595828973674426],[-95.683543951187374,29.59582624826362],[-95.68354272992481,29.595823367474978],[-95.683540795882848,29.59581880456205],[-95.683540046823055,29.595817062867315],[-95.683538194822432,29.595813186183666],[-95.683535055587313,29.595806615725881],[-95.68353177136261,29.59579973929187],[-95.683529178545058,29.595794312475604],[-95.683525880722385,29.595787409527947],[-95.683524714376688,29.595784968779888],[-95.683520725060305,29.595776618919821],[-95.683518548154908,29.595772060817424],[-95.683516243518056,29.595767237785076],[-95.683514709669936,29.595764027909826],[-95.68351304921012,29.595760550424394],[-95.68351094280959,29.59575614300411],[-95.683509702066743,29.595753544256077],[-95.683508248457457,29.595750503356911],[-95.683506518379531,29.595746879724384],[-95.683504734997271,29.595743148259722],[-95.683503424562758,29.595740341983745],[-95.68349485000094,29.595720301287706],[-95.683463163065156,29.595646237331319],[-95.683437169085536,29.595574906859976],[-95.68337545240081,29.595396857095867],[-95.683361368445588,29.595351502670596],[-95.683345723809097,29.595297147311648],[-95.683345442145168,29.595296151945977],[-95.683345168715064,29.595295189279202],[-95.683344817498821,29.595293950283683],[-95.683344513585155,29.595292876739968],[-95.683344284625278,29.595292071331176],[-95.683343994522559,29.595291049579902],[-95.683339413693588,29.595274896231015],[-95.683331875373995,29.595217586235549],[-95.683332616167363,29.595094371775055],[-95.683333955011292,29.594871782348168],[-95.683334120839888,29.594844176729733],[-95.683320440530977,29.594201926647219],[-95.683303664726267,29.593414338086472],[-95.683276001665476,29.592115574588661],[-95.683256356586426,29.59119326143265],[-95.683240547731188,29.590451035559784],[-95.683287735893686,29.59045378152215],[-95.683271666012757,29.589615195607887],[-95.683259057426582,29.588957204086018],[-95.683252772918792,29.588629223337335],[-95.683241668870693,29.588049677182209],[-95.684042484628051,29.588020649253508],[-95.68484816289164,29.588007824689786],[-95.685668656211661,29.587989015924709],[-95.686283367819726,29.587971142461907],[-95.687242647532159,29.58794343468859],[-95.687716811204922,29.587932237636174],[-95.688222816099838,29.587921218832559],[-95.688783361751064,29.587906927595178],[-95.689192354310705,29.587898393317225],[-95.689451688789561,29.587893613501656],[-95.689695560243692,29.587882967943575],[-95.689859898606542,29.587875794094945],[-95.689890897460444,29.589503359566635]],[[-95.594073118509783,29.557025030020597],[-95.593943229172211,29.558595900418673],[-95.592994578715249,29.55932023075864],[-95.592926449006441,29.556955277337714],[-95.594073118509783,29.557025030020597]],[[-95.595810519189612,29.555929578696215],[-95.596732800158932,29.555919236300468],[-95.596679738757146,29.554405200229937],[-95.596640136196072,29.553244766791732],[-95.59657367375398,29.551367097517986],[-95.596141246086546,29.551376845574943],[-95.596470176723372,29.550347054386005],[-95.597151658128865,29.5490052573215],[-95.599653426039879,29.544080490763601],[-95.600272257256648,29.542860722393137],[-95.600288959950063,29.542806080214685],[-95.600668429234631,29.541319663161033],[-95.601958813017575,29.536208839341466],[-95.603032999088512,29.536131227687054],[-95.604583411786265,29.535581551647422],[-95.605675497991541,29.534781246680271],[-95.605668363970182,29.533692998614644],[-95.606893625723785,29.533035071508117],[-95.607854397593343,29.532612831044833],[-95.608255152550285,29.532393109525739],[-95.609217928058328,29.532840566051735],[-95.609514329801627,29.53293246656408],[-95.60982196791592,29.532989517947897],[-95.610590303963491,29.53301741791174],[-95.613985239711923,29.532394911520537],[-95.61478257512357,29.533990583260557],[-95.615085204752035,29.534656829768277],[-95.615506254463511,29.535361998123811],[-95.615794028678579,29.535897147037595],[-95.615757712672163,29.53593745406085],[-95.615585634572412,29.536458314233634],[-95.615632725510295,29.536908798599828],[-95.615641827606183,29.537017601755473],[-95.615752191730266,29.537355605948456],[-95.615917001756372,29.537678549757018],[-95.616124999137583,29.538253665436674],[-95.616243782663986,29.538907288265214],[-95.616273310904731,29.539241399146352],[-95.616458600637813,29.539645806233171],[-95.61654912413421,29.539847404898318],[-95.616794132910897,29.54020980725323],[-95.617176789568688,29.540581790078086],[-95.617349673768899,29.540750937045125],[-95.617781914579908,29.541124940579085],[-95.618110180429539,29.541409607981677],[-95.618666575331901,29.541772192404402],[-95.619394928521828,29.541940117837381],[-95.619974133231665,29.542248108305738],[-95.62047574683308,29.542829092501009],[-95.620836908291963,29.544000044505001],[-95.620576974136753,29.544032413035968],[-95.620309480166313,29.544178263360152],[-95.619983844840789,29.544228734638992],[-95.61971146835478,29.544366572956431],[-95.619613776747187,29.544495348631717],[-95.619401710239543,29.544718355740962],[-95.619056238692139,29.54489606911098],[-95.618813383488316,29.545108621235361],[-95.618586640692655,29.545326664162321],[-95.618497702708041,29.545591487726199],[-95.618442479910314,29.545867760167873],[-95.618316892410604,29.546120139745437],[-95.618235286114725,29.54638744490569],[-95.618187758496063,29.546610998101325],[-95.61814746251045,29.546884689005303],[-95.618082346396164,29.547157400100399],[-95.618039850831295,29.547431003727706],[-95.618054224178479,29.547706859875781],[-95.618058542393271,29.547982317264552],[-95.618049035860182,29.54825723361779],[-95.618149422193298,29.548811799320074],[-95.618124206429812,29.549086095364949],[-95.61834083130276,29.549852496844981],[-95.618187715788906,29.550527364172275],[-95.618176036352182,29.550612662249673],[-95.618170419921427,29.550696807518342],[-95.618173208830498,29.551241668833192],[-95.61224149546284,29.55139498448834],[-95.608779601579329,29.551484116627229],[-95.608833094308636,29.55317100429043],[-95.608832593368319,29.553228803195953],[-95.608842061025356,29.554031152891991],[-95.608910498983334,29.555339640124533],[-95.608980135883897,29.556670267888407],[-95.607044269975063,29.556691554747335],[-95.603996651073842,29.556788519968652],[-95.602139523890585,29.556845252988353],[-95.599421597388726,29.556928948059177],[-95.596768034697504,29.557006818805821],[-95.595724703791674,29.557034659936587],[-95.595810519189612,29.555929578696215]],[[-95.592675588970138,29.554797649387258],[-95.591514275707993,29.554768047485521],[-95.591377028816567,29.554289867560538],[-95.5912786462615,29.553526127323952],[-95.591323693627118,29.551783605020475],[-95.592587999091435,29.551754007013123],[-95.592675588970138,29.554797649387258]],[[-95.592839507255903,29.554092382294076],[-95.592776488677316,29.55174954318549],[-95.594490996945325,29.551693368622097],[-95.594292916790025,29.554183995384879],[-95.592839507255903,29.554092382294076]]]},"properties":{"OBJECTID":2028,"Display":null,"Sq_Miles":null,"Shape_STAr":null,"Shape_STLe":null,"Shape.STArea()":1196790743.208267,"Shape.STLength()":287379.55110840203,"GlobalID":"{EF06767A-04E0-41FB-97EC-6F2D841C6842}"}}]}